{
    "links": {
        "self": "http://www.neowsapp.com/rest/v1/neo/3745898?api_key=iIulBulltgU6a56xZRHN4H3l9WmuAYTsLGpBGhQ2"
    },
    "id": "3745898",
    "neo_reference_id": "3745898",
    "name": "(2016 EG56)",
    "designation": "2016 EG56",
    "nasa_jpl_url": "http://ssd.jpl.nasa.gov/sbdb.cgi?sstr=3745898",
    "absolute_magnitude_h": 22.6,
    "estimated_diameter": {
        "kilometers": {
            "estimated_diameter_min": 0.0802703167,
            "estimated_diameter_max": 0.1794898848
        },
        "meters": {
            "estimated_diameter_min": 80.2703167283,
            "estimated_diameter_max": 179.4898847799
        },
        "miles": {
            "estimated_diameter_min": 0.049877647,
            "estimated_diameter_max": 0.1115298092
        },
        "feet": {
            "estimated_diameter_min": 263.3540659348,
            "estimated_diameter_max": 588.8775935812
        }
    },
    "is_potentially_hazardous_asteroid": false,
    "close_approach_data": [
        {
            "close_approach_date": "2002-03-17",
            "close_approach_date_full": "2002-Mar-17 05:56",
            "epoch_date_close_approach": 1016344560000,
            "relative_velocity": {
                "kilometers_per_second": "5.0738500083",
                "kilometers_per_hour": "18265.8600298627",
                "miles_per_hour": "11349.6950835555"
            },
            "miss_distance": {
                "astronomical": "0.3914353135",
                "lunar": "152.2683369515",
                "kilometers": "58557889.142382245",
                "miles": "36386185.063255181"
            },
            "orbiting_body": "Earth"
        },
        {
            "close_approach_date": "2009-03-25",
            "close_approach_date_full": "2009-Mar-25 20:09",
            "epoch_date_close_approach": 1238011740000,
            "relative_velocity": {
                "kilometers_per_second": "4.9074573012",
                "kilometers_per_hour": "17666.846284298",
                "miles_per_hour": "10977.4912370406"
            },
            "miss_distance": {
                "astronomical": "0.2758149089",
                "lunar": "107.2919995621",
                "kilometers": "41261322.885684043",
                "miles": "25638597.1636160734"
            },
            "orbiting_body": "Earth"
        },
        {
            "close_approach_date": "2016-03-27",
            "close_approach_date_full": "2016-Mar-27 16:20",
            "epoch_date_close_approach": 1459095600000,
            "relative_velocity": {
                "kilometers_per_second": "4.7520396523",
                "kilometers_per_hour": "17107.3427484545",
                "miles_per_hour": "10629.8374983383"
            },
            "miss_distance": {
                "astronomical": "0.250712101",
                "lunar": "97.527007289",
                "kilometers": "37505996.29282487",
                "miles": "23305145.422408406"
            },
            "orbiting_body": "Earth"
        },
        {
            "close_approach_date": "2023-03-31",
            "close_approach_date_full": "2023-Mar-31 14:24",
            "epoch_date_close_approach": 1680272640000,
            "relative_velocity": {
                "kilometers_per_second": "4.5382541503",
                "kilometers_per_hour": "16337.7149412042",
                "miles_per_hour": "10151.6207088832"
            },
            "miss_distance": {
                "astronomical": "0.2197508123",
                "lunar": "85.4830659847",
                "kilometers": "32874253.450849801",
                "miles": "20427113.8765012138"
            },
            "orbiting_body": "Earth"
        },
        {
            "close_approach_date": "2030-04-05",
            "close_approach_date_full": "2030-Apr-05 12:12",
            "epoch_date_close_approach": 1901621520000,
            "relative_velocity": {
                "kilometers_per_second": "5.0723529075",
                "kilometers_per_hour": "18260.470467023",
                "miles_per_hour": "11346.3462188011"
            },
            "miss_distance": {
                "astronomical": "0.3049469516",
                "lunar": "118.6243641724",
                "kilometers": "45619414.422353092",
                "miles": "28346589.6732209896"
            },
            "orbiting_body": "Earth"
        }
    ],
    "orbital_data": {
        "orbit_id": "12",
        "orbit_determination_date": "2017-04-06 08:27:43",
        "first_observation_date": "2016-03-04",
        "last_observation_date": "2016-05-06",
        "data_arc_in_days": 63,
        "observations_used": 46,
        "orbit_uncertainty": "5",
        "minimum_orbit_intersection": ".222449",
        "jupiter_tisserand_invariant": "3.428",
        "epoch_osculation": "2459000.5",
        "eccentricity": ".4694289298749576",
        "semi_major_axis": "2.30124818193691",
        "inclination": "6.336595408049212",
        "ascending_node_longitude": "191.6822127744206",
        "orbital_period": "1275.098146578617",
        "perihelion_distance": "1.220975710513575",
        "perihelion_argument": "355.2100387347772",
        "aphelion_distance": "3.381520653360246",
        "perihelion_time": "2458756.384965121604",
        "mean_anomaly": "68.92129268011922",
        "mean_motion": ".2823312079669815",
        "equinox": "J2000",
        "orbit_class": {
            "orbit_class_type": "AMO",
            "orbit_class_description": "Near-Earth asteroid orbits similar to that of 1221 Amor",
            "orbit_class_range": "1.017 AU < q (perihelion) < 1.3 AU"
        }
    },
    "is_sentry_object": false
}